{"type": "FeatureCollection", "features": [ {"type": "Feature", "properties": {"norad_id": 66619, "name": "STARLINK-35951", "group": "last-30-days", "lat": -16.61465401598956, "lon": -176.3217451455144, "alt_km": 395.36115288734345, "timestamp": "2025-12-10T18:56:58.833839+00:00", "meta": {"OBJECT_NAME": "STARLINK-35951", "OBJECT_ID": "2025-271C", "EPOCH": "2025-12-10T12:00:02.998944", "MEAN_MOTION": 15.59687773, "ECCENTRICITY": 0.0001127, "INCLINATION": 53.1599, "RA_OF_ASC_NODE": 198.0106, "ARG_OF_PERICENTER": 97.5753, "MEAN_ANOMALY": 55.6185, "EPHEMERIS_TYPE": 0, "CLASSIFICATION_TYPE": "U", "NORAD_CAT_ID": 66619, "ELEMENT_SET_NO": 999, "REV_AT_EPOCH": 388, "BSTAR": -0.027435, "MEAN_MOTION_DOT": -0.01964077, "MEAN_MOTION_DDOT": 0}, "tle": {"line1": "1 66619U 25271C   25344.50003471 -.01964077  00000+0 -27435-1 0  9990", "line2": "2 66619  53.1599 198.0106 0001127  97.5753  55.6185 15.59687773  3881"}}, "geometry": {"type": "Point", "coordinates": [-176.3217451455144, -16.61465401598956]}}, {"type": "Feature", "properties": {"norad_id": 66620, "name": "STARLINK-35936", "group": "last-30-days", "lat": -21.058794303227746, "lon": 179.83989184984455, "alt_km": 395.80043730555644, "timestamp": "2025-12-10T18:56:58.833849+00:00", "meta": {"OBJECT_NAME": "STARLINK-35936", "OBJECT_ID": "2025-271D", "EPOCH": "2025-12-10T12:00:02.998944", "MEAN_MOTION": 15.59683494, "ECCENTRICITY": 0.0001105, "INCLINATION": 53.1599, "RA_OF_ASC_NODE": 198.0238, "ARG_OF_PERICENTER": 95.7071, "MEAN_ANOMALY": 51.7382, "EPHEMERIS_TYPE": 0, "CLASSIFICATION_TYPE": "U", "NORAD_CAT_ID": 66620, "ELEMENT_SET_NO": 999, "REV_AT_EPOCH": 388, "BSTAR": -0.027366, "MEAN_MOTION_DOT": -0.01959494, "MEAN_MOTION_DDOT": 0}, "tle": {"line1": "1 66620U 25271D   25344.50003471 -.01959494  00000+0 -27366-1 0  9992", "line2": "2 66620  53.1599 198.0238 0001105  95.7071  51.7382 15.59683494  3880"}}, "geometry": {"type": "Point", "coordinates": [179.83989184984455, -21.058794303227746]}}, {"type": "Feature", "properties": {"norad_id": 66621, "name": "STARLINK-35847", "group": "last-30-days", "lat": 22.267628824517214, "lon": -145.61969525255256, "alt_km": 389.71711974540995, "timestamp": "2025-12-10T18:56:58.833861+00:00", "meta": {"OBJECT_NAME": "STARLINK-35847", "OBJECT_ID": "2025-271E", "EPOCH": "2025-12-10T12:00:02.998944", "MEAN_MOTION": 15.59642571, "ECCENTRICITY": 0.0001383, "INCLINATION": 53.1597, "RA_OF_ASC_NODE": 197.9073, "ARG_OF_PERICENTER": 109.3322, "MEAN_ANOMALY": 93.092, "EPHEMERIS_TYPE": 0, "CLASSIFICATION_TYPE": "U", "NORAD_CAT_ID": 66621, "ELEMENT_SET_NO": 999, "REV_AT_EPOCH": 388, "BSTAR": -0.0268, "MEAN_MOTION_DOT": -0.01921272, "MEAN_MOTION_DDOT": 0}, "tle": {"line1": "1 66621U 25271E   25344.50003471 -.01921272  00000+0 -26800-1 0  9998", "line2": "2 66621  53.1597 197.9073 0001383 109.3322  93.0920 15.59642571  3881"}}, "geometry": {"type": "Point", "coordinates": [-145.61969525255256, 22.267628824517214]}}, {"type": "Feature", "properties": {"norad_id": 66622, "name": "STARLINK-35950", "group": "last-30-days", "lat": -15.116987794274818, "lon": -175.08249446668216, "alt_km": 395.1803339745393, "timestamp": "2025-12-10T18:56:58.833871+00:00", "meta": {"OBJECT_NAME": "STARLINK-35950", "OBJECT_ID": "2025-271F", "EPOCH": "2025-12-10T12:00:02.998944", "MEAN_MOTION": 15.59685505, "ECCENTRICITY": 0.0001117, "INCLINATION": 53.1598, "RA_OF_ASC_NODE": 198.0077, "ARG_OF_PERICENTER": 96.1284, "MEAN_ANOMALY": 58.9844, "EPHEMERIS_TYPE": 0, "CLASSIFICATION_TYPE": "U", "NORAD_CAT_ID": 66622, "ELEMENT_SET_NO": 999, "REV_AT_EPOCH": 388, "BSTAR": -0.027424, "MEAN_MOTION_DOT": -0.01963277, "MEAN_MOTION_DDOT": 0}, "tle": {"line1": "1 66622U 25271F   25344.50003471 -.01963277  00000+0 -27424-1 0  9993", "line2": "2 66622  53.1598 198.0077 0001117  96.1284  58.9844 15.59685505  3883"}}, "geometry": {"type": "Point", "coordinates": [-175.08249446668216, -15.116987794274818]}}, {"type": "Feature", "properties": {"norad_id": 66623, "name": "STARLINK-35920", "group": "last-30-days", "lat": -12.10148093333125, "lon": -172.65658773484475, "alt_km": 394.92517615981797, "timestamp": "2025-12-10T18:56:58.833881+00:00", "meta": {"OBJECT_NAME": "STARLINK-35920", "OBJECT_ID": "2025-271G", "EPOCH": "2025-12-10T12:00:02.998944", "MEAN_MOTION": 15.59690402, "ECCENTRICITY": 0.000124, "INCLINATION": 53.1599, "RA_OF_ASC_NODE": 197.9989, "ARG_OF_PERICENTER": 101.1982, "MEAN_ANOMALY": 57.748, "EPHEMERIS_TYPE": 0, "CLASSIFICATION_TYPE": "U", "NORAD_CAT_ID": 66623, "ELEMENT_SET_NO": 999, "REV_AT_EPOCH": 388, "BSTAR": -0.027539, "MEAN_MOTION_DOT": -0.01970891, "MEAN_MOTION_DDOT": 0}, "tle": {"line1": "1 66623U 25271G   25344.50003471 -.01970891  00000+0 -27539-1 0  9991", "line2": "2 66623  53.1599 197.9989 0001240 101.1982  57.7480 15.59690402  3889"}}, "geometry": {"type": "Point", "coordinates": [-172.65658773484475, -12.10148093333125]}}, {"type": "Feature", "properties": {"norad_id": 66624, "name": "STARLINK-35927", "group": "last-30-days", "lat": -13.610525917321684, "lon": -173.86012036138075, "alt_km": 395.0630316660181, "timestamp": "2025-12-10T18:56:58.833891+00:00", "meta": {"OBJECT_NAME": "STARLINK-35927", "OBJECT_ID": "2025-271H", "EPOCH": "2025-12-10T12:00:02.998944", "MEAN_MOTION": 15.59693387, "ECCENTRICITY": 0.0001073, "INCLINATION": 53.1599, "RA_OF_ASC_NODE": 198.0036, "ARG_OF_PERICENTER": 102.9332, "MEAN_ANOMALY": 54.0942, "EPHEMERIS_TYPE": 0, "CLASSIFICATION_TYPE": "U", "NORAD_CAT_ID": 66624, "ELEMENT_SET_NO": 999, "REV_AT_EPOCH": 388, "BSTAR": -0.027592, "MEAN_MOTION_DOT": -0.01974282, "MEAN_MOTION_DDOT": 0}, "tle": {"line1": "1 66624U 25271H   25344.50003471 -.01974282  00000+0 -27592-1 0  9999", "line2": "2 66624  53.1599 198.0036 0001073 102.9332  54.0942 15.59693387  3885"}}, "geometry": {"type": "Point", "coordinates": [-173.86012036138075, -13.610525917321684]}}, {"type": "Feature", "properties": {"norad_id": 66625, "name": "STARLINK-35929", "group": "last-30-days", "lat": -10.58588894102442, "lon": -171.46486815977926, "alt_km": 394.8150975226772, "timestamp": "2025-12-10T18:56:58.833903+00:00", "meta": {"OBJECT_NAME": "STARLINK-35929", "OBJECT_ID": "2025-271J", "EPOCH": "2025-12-10T12:00:02.998944", "MEAN_MOTION": 15.59690202, "ECCENTRICITY": 0.0001259, "INCLINATION": 53.1599, "RA_OF_ASC_NODE": 197.9949, "ARG_OF_PERICENTER": 106.893, "MEAN_ANOMALY": 53.9702, "EPHEMERIS_TYPE": 0, "CLASSIFICATION_TYPE": "U", "NORAD_CAT_ID": 66625, "ELEMENT_SET_NO": 999, "REV_AT_EPOCH": 388, "BSTAR": -0.02755, "MEAN_MOTION_DOT": -0.01971561, "MEAN_MOTION_DDOT": 0}, "tle": {"line1": "1 66625U 25271J   25344.50003471 -.01971561  00000+0 -27550-1 0  9991", "line2": "2 66625  53.1599 197.9949 0001259 106.8930  53.9702 15.59690202  3885"}}, "geometry": {"type": "Point", "coordinates": [-171.46486815977926, -10.58588894102442]}}, {"type": "Feature", "properties": {"norad_id": 66626, "name": "STARLINK-35902", "group": "last-30-days", "lat": -9.066822288597717, "lon": -170.28559277071395, "alt_km": 394.53201982701285, "timestamp": "2025-12-10T18:56:58.833913+00:00", "meta": {"OBJECT_NAME": "STARLINK-35902", "OBJECT_ID": "2025-271K", "EPOCH": "2025-12-10T12:00:02.998944", "MEAN_MOTION": 15.59683782, "ECCENTRICITY": 0.0001104, "INCLINATION": 53.1599, "RA_OF_ASC_NODE": 197.991, "ARG_OF_PERICENTER": 103.9302, "MEAN_ANOMALY": 58.8495, "EPHEMERIS_TYPE": 0, "CLASSIFICATION_TYPE": "U", "NORAD_CAT_ID": 66626, "ELEMENT_SET_NO": 999, "REV_AT_EPOCH": 388, "BSTAR": -0.027374, "MEAN_MOTION_DOT": -0.01959972, "MEAN_MOTION_DDOT": 0}, "tle": {"line1": "1 66626U 25271K   25344.50003471 -.01959972  00000+0 -27374-1 0  9998", "line2": "2 66626  53.1599 197.9910 0001104 103.9302  58.8495 15.59683782  3882"}}, "geometry": {"type": "Point", "coordinates": [-170.28559277071395, -9.066822288597717]}}, {"type": "Feature", "properties": {"norad_id": 66627, "name": "STARLINK-35904", "group": "last-30-days", "lat": -7.542218100855446, "lon": -169.1153522430569, "alt_km": 394.31799871191924, "timestamp": "2025-12-10T18:56:58.833925+00:00", "meta": {"OBJECT_NAME": "STARLINK-35904", "OBJECT_ID": "2025-271L", "EPOCH": "2025-12-10T12:00:02.998944", "MEAN_MOTION": 15.59685895, "ECCENTRICITY": 0.0001165, "INCLINATION": 53.1599, "RA_OF_ASC_NODE": 197.9867, "ARG_OF_PERICENTER": 100.6582, "MEAN_ANOMALY": 64.0388, "EPHEMERIS_TYPE": 0, "CLASSIFICATION_TYPE": "U", "NORAD_CAT_ID": 66627, "ELEMENT_SET_NO": 999, "REV_AT_EPOCH": 372, "BSTAR": -0.02742, "MEAN_MOTION_DOT": -0.01963082, "MEAN_MOTION_DDOT": 0}, "tle": {"line1": "1 66627U 25271L   25344.50003471 -.01963082  00000+0 -27420-1 0  9998", "line2": "2 66627  53.1599 197.9867 0001165 100.6582  64.0388 15.59685895  3725"}}, "geometry": {"type": "Point", "coordinates": [-169.1153522430569, -7.542218100855446]}}, {"type": "Feature", "properties": {"norad_id": 66628, "name": "STARLINK-35862", "group": "last-30-days", "lat": -6.015553664912226, "lon": -167.95366559494448, "alt_km": 394.2173077176576, "timestamp": "2025-12-10T18:56:58.833935+00:00", "meta": {"OBJECT_NAME": "STARLINK-35862", "OBJECT_ID": "2025-271M", "EPOCH": "2025-12-10T12:00:02.998944", "MEAN_MOTION": 15.59686188, "ECCENTRICITY": 0.000121, "INCLINATION": 53.1599, "RA_OF_ASC_NODE": 197.9829, "ARG_OF_PERICENTER": 108.3486, "MEAN_ANOMALY": 58.2644, "EPHEMERIS_TYPE": 0, "CLASSIFICATION_TYPE": "U", "NORAD_CAT_ID": 66628, "ELEMENT_SET_NO": 999, "REV_AT_EPOCH": 388, "BSTAR": -0.027429, "MEAN_MOTION_DOT": -0.01963686, "MEAN_MOTION_DDOT": 0}, "tle": {"line1": "1 66628U 25271M   25344.50003471 -.01963686  00000+0 -27429-1 0  9998", "line2": "2 66628  53.1599 197.9829 0001210 108.3486  58.2644 15.59686188  3886"}}, "geometry": {"type": "Point", "coordinates": [-167.95366559494448, -6.015553664912226]}}]}